[{"OBJECT_NAME":"IRIDIUM 151","OBJECT_ID":"2017-083E","EPOCH":"2026-03-14T21:36:55.238112","MEAN_MOTION":14.34217404,"ECCENTRICITY":0.00020965,"INCLINATION":86.4024,"RA_OF_ASC_NODE":1.4614,"ARG_OF_PERICENTER":85.4972,"MEAN_ANOMALY":274.6464,"EPHEMERIS_TYPE":0,"CLASSIFICATION_TYPE":"U","NORAD_CAT_ID":43074,"ELEMENT_SET_NO":999,"REV_AT_EPOCH":43062,"BSTAR":-1.1264012e-5,"MEAN_MOTION_DOT":-1.2e-7,"MEAN_MOTION_DDOT":0},{"OBJECT_NAME":"IRIDIUM 134","OBJECT_ID":"2017-083F","EPOCH":"2026-03-14T20:51:15.159744","MEAN_MOTION":14.34217983,"ECCENTRICITY":0.00020355,"INCLINATION":86.4028,"RA_OF_ASC_NODE":1.4813,"ARG_OF_PERICENTER":87.5202,"MEAN_ANOMALY":272.6227,"EPHEMERIS_TYPE":0,"CLASSIFICATION_TYPE":"U","NORAD_CAT_ID":43075,"ELEMENT_SET_NO":999,"REV_AT_EPOCH":43058,"BSTAR":1.440196e-5,"MEAN_MOTION_DOT":6.0e-7,"MEAN_MOTION_DDOT":0},{"OBJECT_NAME":"IRIDIUM 137","OBJECT_ID":"2017-083G","EPOCH":"2026-03-14T21:09:31.256928","MEAN_MOTION":14.34217534,"ECCENTRICITY":0.00023876,"INCLINATION":86.4028,"RA_OF_ASC_NODE":1.567,"ARG_OF_PERICENTER":92.2031,"MEAN_ANOMALY":267.9438,"EPHEMERIS_TYPE":0,"CLASSIFICATION_TYPE":"U","NORAD_CAT_ID":43076,"ELEMENT_SET_NO":999,"REV_AT_EPOCH":43065,"BSTAR":-9.473051e-6,"MEAN_MOTION_DOT":-7.0e-8,"MEAN_MOTION_DDOT":0},{"OBJECT_NAME":"IRIDIUM 141","OBJECT_ID":"2017-083H","EPOCH":"2026-03-14T21:00:23.172480","MEAN_MOTION":14.34218628,"ECCENTRICITY":0.0002143,"INCLINATION":86.4024,"RA_OF_ASC_NODE":1.4056,"ARG_OF_PERICENTER":83.2854,"MEAN_ANOMALY":276.8585,"EPHEMERIS_TYPE":0,"CLASSIFICATION_TYPE":"U","NORAD_CAT_ID":43077,"ELEMENT_SET_NO":999,"REV_AT_EPOCH":43065,"BSTAR":4.5173628e-5,"MEAN_MOTION_DOT":1.46e-6,"MEAN_MOTION_DDOT":0},{"OBJECT_NAME":"IRIDIUM 153","OBJECT_ID":"2017-083J","EPOCH":"2026-03-14T23:12:27.190368","MEAN_MOTION":14.342168,"ECCENTRICITY":0.00019743,"INCLINATION":86.4005,"RA_OF_ASC_NODE":329.88,"ARG_OF_PERICENTER":77.825,"MEAN_ANOMALY":282.3167,"EPHEMERIS_TYPE":0,"CLASSIFICATION_TYPE":"U","NORAD_CAT_ID":43078,"ELEMENT_SET_NO":999,"REV_AT_EPOCH":43177,"BSTAR":5.1219479e-5,"MEAN_MOTION_DOT":1.63e-6,"MEAN_MOTION_DDOT":0},{"OBJECT_NAME":"IRIDIUM 131","OBJECT_ID":"2017-083K","EPOCH":"2026-03-14T20:42:07.086528","MEAN_MOTION":14.34218853,"ECCENTRICITY":0.00022338,"INCLINATION":86.4029,"RA_OF_ASC_NODE":1.59,"ARG_OF_PERICENTER":83.0809,"MEAN_ANOMALY":277.0641,"EPHEMERIS_TYPE":0,"CLASSIFICATION_TYPE":"U","NORAD_CAT_ID":43079,"ELEMENT_SET_NO":999,"REV_AT_EPOCH":43058,"BSTAR":4.7072086e-5,"MEAN_MOTION_DOT":1.52e-6,"MEAN_MOTION_DDOT":0},{"OBJECT_NAME":"IRIDIUM 144","OBJECT_ID":"2018-030A","EPOCH":"2026-03-14T23:21:35.415648","MEAN_MOTION":14.34218035,"ECCENTRICITY":0.00020522,"INCLINATION":86.4005,"RA_OF_ASC_NODE":329.8087,"ARG_OF_PERICENTER":87.7848,"MEAN_ANOMALY":272.3583,"EPHEMERIS_TYPE":0,"CLASSIFICATION_TYPE":"U","NORAD_CAT_ID":43249,"ELEMENT_SET_NO":999,"REV_AT_EPOCH":41663,"BSTAR":1.2887925e-5,"MEAN_MOTION_DOT":5.6e-7,"MEAN_MOTION_DDOT":0},{"OBJECT_NAME":"IRIDIUM 149","OBJECT_ID":"2018-030B","EPOCH":"2026-03-14T23:30:43.467264","MEAN_MOTION":14.34218103,"ECCENTRICITY":0.00021256,"INCLINATION":86.4003,"RA_OF_ASC_NODE":329.7742,"ARG_OF_PERICENTER":83.2075,"MEAN_ANOMALY":276.9363,"EPHEMERIS_TYPE":0,"CLASSIFICATION_TYPE":"U","NORAD_CAT_ID":43250,"ELEMENT_SET_NO":999,"REV_AT_EPOCH":41665,"BSTAR":8.4696415e-5,"MEAN_MOTION_DOT":2.57e-6,"MEAN_MOTION_DDOT":0},{"OBJECT_NAME":"IRIDIUM 157","OBJECT_ID":"2018-030C","EPOCH":"2026-03-14T20:37:11.406720","MEAN_MOTION":14.34218016,"ECCENTRICITY":0.00020983,"INCLINATION":86.4005,"RA_OF_ASC_NODE":329.8757,"ARG_OF_PERICENTER":84.0069,"MEAN_ANOMALY":276.1366,"EPHEMERIS_TYPE":0,"CLASSIFICATION_TYPE":"U","NORAD_CAT_ID":43251,"ELEMENT_SET_NO":999,"REV_AT_EPOCH":41661,"BSTAR":2.9971479e-5,"MEAN_MOTION_DOT":1.04e-6,"MEAN_MOTION_DDOT":0},{"OBJECT_NAME":"IRIDIUM 140","OBJECT_ID":"2018-030D","EPOCH":"2026-03-14T22:45:03.396672","MEAN_MOTION":14.34217756,"ECCENTRICITY":0.00020015,"INCLINATION":86.3999,"RA_OF_ASC_NODE":329.8512,"ARG_OF_PERICENTER":86.4902,"MEAN_ANOMALY":273.6522,"EPHEMERIS_TYPE":0,"CLASSIFICATION_TYPE":"U","NORAD_CAT_ID":43252,"ELEMENT_SET_NO":999,"REV_AT_EPOCH":41668,"BSTAR":3.018982e-6,"MEAN_MOTION_DOT":2.8e-7,"MEAN_MOTION_DDOT":0},{"OBJECT_NAME":"IRIDIUM 145","OBJECT_ID":"2018-030E","EPOCH":"2026-03-14T17:25:23.018304","MEAN_MOTION":14.34216808,"ECCENTRICITY":0.00020842,"INCLINATION":86.4003,"RA_OF_ASC_NODE":329.9163,"ARG_OF_PERICENTER":95.0888,"MEAN_ANOMALY":265.0546,"EPHEMERIS_TYPE":0,"CLASSIFICATION_TYPE":"U","NORAD_CAT_ID":43253,"ELEMENT_SET_NO":999,"REV_AT_EPOCH":41658,"BSTAR":8.8618283e-5,"MEAN_MOTION_DOT":2.68e-6,"MEAN_MOTION_DDOT":0},{"OBJECT_NAME":"IRIDIUM 146","OBJECT_ID":"2018-030F","EPOCH":"2026-03-14T16:57:59.373216","MEAN_MOTION":14.34218241,"ECCENTRICITY":0.00021714,"INCLINATION":86.4003,"RA_OF_ASC_NODE":329.9369,"ARG_OF_PERICENTER":89.173,"MEAN_ANOMALY":270.9715,"EPHEMERIS_TYPE":0,"CLASSIFICATION_TYPE":"U","NORAD_CAT_ID":43254,"ELEMENT_SET_NO":999,"REV_AT_EPOCH":41659,"BSTAR":2.4539541e-5,"MEAN_MOTION_DOT":8.8e-7,"MEAN_MOTION_DDOT":0},{"OBJECT_NAME":"IRIDIUM 148","OBJECT_ID":"2018-030G","EPOCH":"2026-03-14T22:54:11.429280","MEAN_MOTION":14.34217484,"ECCENTRICITY":0.00020069,"INCLINATION":86.3998,"RA_OF_ASC_NODE":329.875,"ARG_OF_PERICENTER":85.5845,"MEAN_ANOMALY":274.558,"EPHEMERIS_TYPE":0,"CLASSIFICATION_TYPE":"U","NORAD_CAT_ID":43255,"ELEMENT_SET_NO":999,"REV_AT_EPOCH":41666,"BSTAR":-8.363859e-6,"MEAN_MOTION_DOT":-4.0e-8,"MEAN_MOTION_DDOT":0},{"OBJECT_NAME":"IRIDIUM 142","OBJECT_ID":"2018-030H","EPOCH":"2026-03-14T17:07:07.442112","MEAN_MOTION":14.34217688,"ECCENTRICITY":0.00020979,"INCLINATION":86.4001,"RA_OF_ASC_NODE":329.8684,"ARG_OF_PERICENTER":93.6386,"MEAN_ANOMALY":266.505,"EPHEMERIS_TYPE":0,"CLASSIFICATION_TYPE":"U","NORAD_CAT_ID":43256,"ELEMENT_SET_NO":999,"REV_AT_EPOCH":41659,"BSTAR":1.1877792e-5,"MEAN_MOTION_DOT":5.3e-7,"MEAN_MOTION_DDOT":0},{"OBJECT_NAME":"IRIDIUM 150","OBJECT_ID":"2018-030J","EPOCH":"2026-03-14T23:03:19.324512","MEAN_MOTION":14.34217624,"ECCENTRICITY":0.00020536,"INCLINATION":86.4004,"RA_OF_ASC_NODE":329.8783,"ARG_OF_PERICENTER":86.0628,"MEAN_ANOMALY":274.0803,"EPHEMERIS_TYPE":0,"CLASSIFICATION_TYPE":"U","NORAD_CAT_ID":43257,"ELEMENT_SET_NO":999,"REV_AT_EPOCH":41665,"BSTAR":7.0520733e-5,"MEAN_MOTION_DOT":2.17e-6,"MEAN_MOTION_DDOT":0},{"OBJECT_NAME":"IRIDIUM 143","OBJECT_ID":"2018-030K","EPOCH":"2026-03-14T17:34:31.439712","MEAN_MOTION":14.34217538,"ECCENTRICITY":0.00019759,"INCLINATION":86.4002,"RA_OF_ASC_NODE":330.0622,"ARG_OF_PERICENTER":91.277,"MEAN_ANOMALY":268.8653,"EPHEMERIS_TYPE":0,"CLASSIFICATION_TYPE":"U","NORAD_CAT_ID":43258,"ELEMENT_SET_NO":999,"REV_AT_EPOCH":41655,"BSTAR":-3.385702e-6,"MEAN_MOTION_DOT":1.0e-7,"MEAN_MOTION_DDOT":0},{"OBJECT_NAME":"IRIDIUM 161","OBJECT_ID":"2018-047C","EPOCH":"2026-03-14T21:05:51.600480","MEAN_MOTION":14.43277569,"ECCENTRICITY":0.00024586,"INCLINATION":86.4491,"RA_OF_ASC_NODE":127.9147,"ARG_OF_PERICENTER":87.2417,"MEAN_ANOMALY":272.9065,"EPHEMERIS_TYPE":0,"CLASSIFICATION_TYPE":"U","NORAD_CAT_ID":43478,"ELEMENT_SET_NO":999,"REV_AT_EPOCH":41153,"BSTAR":9.7712425e-5,"MEAN_MOTION_DOT":3.49e-6,"MEAN_MOTION_DDOT":0}]
