IRIDIUM 151             
1 43074U 17083E   26073.90063933 -.00000012  00000+0 -11264-4 0  9990
2 43074  86.4024   1.4614 0002096  85.4972 274.6464 14.34217404430620
IRIDIUM 134             
1 43075U 17083F   26073.86892546  .00000060  00000+0  14402-4 0  9994
2 43075  86.4028   1.4813 0002035  87.5202 272.6227 14.34217983430580
IRIDIUM 137             
1 43076U 17083G   26073.88161177 -.00000007  00000+0 -94731-5 0  9993
2 43076  86.4028   1.5670 0002387  92.2031 267.9438 14.34217534430657
IRIDIUM 141             
1 43077U 17083H   26073.87526820  .00000146  00000+0  45174-4 0  9991
2 43077  86.4024   1.4056 0002143  83.2854 276.8585 14.34218628430651
IRIDIUM 153             
1 43078U 17083J   26073.96698137  .00000163  00000+0  51219-4 0  9999
2 43078  86.4005 329.8800 0001974  77.8250 282.3167 14.34216800431777
IRIDIUM 131             
1 43079U 17083K   26073.86258202  .00000152  00000+0  47072-4 0  9994
2 43079  86.4029   1.5900 0002233  83.0809 277.0641 14.34218853430583
IRIDIUM 144             
1 43249U 18030A   26073.97332657  .00000056  00000+0  12888-4 0  9995
2 43249  86.4005 329.8087 0002052  87.7848 272.3583 14.34218035416636
IRIDIUM 149             
1 43250U 18030B   26073.97966976  .00000257  00000+0  84696-4 0  9993
2 43250  86.4003 329.7742 0002125  83.2075 276.9363 14.34218103416651
IRIDIUM 157             
1 43251U 18030C   26073.85915980  .00000104  00000+0  29971-4 0  9996
2 43251  86.4005 329.8757 0002098  84.0069 276.1366 14.34218016416616
IRIDIUM 140             
1 43252U 18030D   26073.94795598  .00000028  00000+0  30190-5 0  9999
2 43252  86.3999 329.8512 0002001  86.4902 273.6522 14.34217756416686
IRIDIUM 145             
1 43253U 18030E   26073.72596086  .00000268  00000+0  88618-4 0  9990
2 43253  86.4003 329.9163 0002084  95.0888 265.0546 14.34216808416584
IRIDIUM 146             
1 43254U 18030F   26073.70693719  .00000088  00000+0  24540-4 0  9994
2 43254  86.4003 329.9369 0002171  89.1730 270.9715 14.34218241416597
IRIDIUM 148             
1 43255U 18030G   26073.95429895 -.00000004  00000+0 -83639-5 0  9999
2 43255  86.3998 329.8750 0002006  85.5845 274.5580 14.34217484416663
IRIDIUM 142             
1 43256U 18030H   26073.71328058  .00000053  00000+0  11878-4 0  9990
2 43256  86.4001 329.8684 0002097  93.6386 266.5050 14.34217688416597
IRIDIUM 150             
1 43257U 18030J   26073.96064033  .00000217  00000+0  70521-4 0  9990
2 43257  86.4004 329.8783 0002053  86.0628 274.0803 14.34217624416655
IRIDIUM 143             
1 43258U 18030K   26073.73230833  .00000010  00000+0 -33857-5 0  9993
2 43258  86.4002 330.0622 0001975  91.2770 268.8653 14.34217538416555
IRIDIUM 161             
1 43478U 18047C   26073.87906945  .00000349  00000+0  97712-4 0  9997
2 43478  86.4491 127.9147 0002458  87.2417 272.9065 14.43277569411532
